start=new Date('2022-04-11T00:00:00.000Z').valueOf();
sats=[{"CENTER_NAME":"EARTH","REF_FRAME":"TEME","GP_ID":"200939339","APOAPSIS":"548.223","MEAN_MOTION":"15.06413840","PERIAPSIS":"546.119","PERIOD":"95.591","ELEMENT_SET_NO":"999","RCS_SIZE":"LARGE","MEAN_MOTION_DOT":"0.00003918","NORAD_CAT_ID":"45660","LAUNCH_DATE":"2020-06-04","ECCENTRICITY":"0.00015190","OBJECT_NAME":"STARLINK-1443","TLE_LINE2":"2 45660  53.0548   0.9649 0001519  58.9999 301.1139 15.06413840103375","EPOCH":"2022-04-10T20:14:12.129216","ARG_OF_PERICENTER":"58.9999","FILE":"3396586","OBJECT_ID":"2020-035D","OBJECT_TYPE":"PAYLOAD","MEAN_ELEMENT_THEORY":"SGP4","MEAN_ANOMALY":"301.1139","INCLINATION":"53.0548","CLASSIFICATION_TYPE":"U","EPHEMERIS_TYPE":"0","MEAN_MOTION_DDOT":"0.0000000000000","SITE":"AFETR","COUNTRY_CODE":"US","SEMIMAJOR_AXIS":"6925.306","DECAY_DATE":null,"TIME_SYSTEM":"UTC","TLE_LINE1":"1 45660U 20035D   22100.84319594  .00003918  00000-0  28165-3 0  9995","BSTAR":"0.00028165000000","RA_OF_ASC_NODE":"0.9649","REV_AT_EPOCH":"10337"},{"EPHEMERIS_TYPE":"0","MEAN_MOTION_DDOT":"0.0000000000000","CLASSIFICATION_TYPE":"U","OBJECT_TYPE":"PAYLOAD","MEAN_ANOMALY":"289.1488","MEAN_ELEMENT_THEORY":"SGP4","INCLINATION":"53.0570","FILE":"3396586","OBJECT_ID":"2020-035E","OBJECT_NAME":"STARLINK-1444","TLE_LINE2":"2 45661  53.0570   0.8741 0001428  70.9655 289.1488 15.06411409103376","EPOCH":"2022-04-10T20:40:44.783616","ARG_OF_PERICENTER":"70.9655","LAUNCH_DATE":"2020-06-04","ECCENTRICITY":"0.00014280","REV_AT_EPOCH":"10337","RA_OF_ASC_NODE":"0.8741","TLE_LINE1":"1 45661U 20035E   22100.86162944  .00003059  00000-0  22412-3 0  9998","BSTAR":"0.00022412000000","DECAY_DATE":null,"TIME_SYSTEM":"UTC","SEMIMAJOR_AXIS":"6925.314","COUNTRY_CODE":"US","SITE":"AFETR","APOAPSIS":"548.168","MEAN_MOTION":"15.06411409","GP_ID":"200939590","REF_FRAME":"TEME","CENTER_NAME":"EARTH","NORAD_CAT_ID":"45661","MEAN_MOTION_DOT":"0.00003059","RCS_SIZE":"LARGE","PERIOD":"95.591","PERIAPSIS":"546.190","ELEMENT_SET_NO":"999"},{"NORAD_CAT_ID":"45662","RCS_SIZE":"LARGE","MEAN_MOTION_DOT":"0.00008472","ELEMENT_SET_NO":"999","PERIAPSIS":"546.081","PERIOD":"95.591","MEAN_MOTION":"15.06411338","APOAPSIS":"548.276","GP_ID":"200938338","REF_FRAME":"TEME","CENTER_NAME":"EARTH","TLE_LINE1":"1 45662U 20035F   22100.87637962  .00008472  00000-0  58677-3 0  9993","BSTAR":"0.00058677000000","RA_OF_ASC_NODE":"0.8009","REV_AT_EPOCH":"10337","TIME_SYSTEM":"UTC","DECAY_DATE":null,"COUNTRY_CODE":"US","SEMIMAJOR_AXIS":"6925.314","SITE":"AFETR","MEAN_MOTION_DDOT":"0.0000000000000","EPHEMERIS_TYPE":"0","CLASSIFICATION_TYPE":"U","OBJECT_ID":"2020-035F","FILE":"3396586","OBJECT_TYPE":"PAYLOAD","MEAN_ELEMENT_THEORY":"SGP4","INCLINATION":"53.0545","MEAN_ANOMALY":"297.5657","ECCENTRICITY":"0.00015850","LAUNCH_DATE":"2020-06-04","ARG_OF_PERICENTER":"62.5493","TLE_LINE2":"2 45662  53.0545   0.8009 0001585  62.5493 297.5657 15.06411338103379","OBJECT_NAME":"STARLINK-1445","EPOCH":"2022-04-10T21:01:59.199168"},{"CLASSIFICATION_TYPE":"U","MEAN_MOTION_DDOT":"0.0000000000000","EPHEMERIS_TYPE":"0","LAUNCH_DATE":"2020-06-04","ECCENTRICITY":"0.00013710","TLE_LINE2":"2 45663  53.0554   0.7881 0001371  77.2044 282.9098 15.06411641103379","EPOCH":"2022-04-10T21:07:17.064768","OBJECT_NAME":"STARLINK-1446","ARG_OF_PERICENTER":"77.2044","FILE":"3396586","OBJECT_ID":"2020-035G","INCLINATION":"53.0554","OBJECT_TYPE":"PAYLOAD","MEAN_ELEMENT_THEORY":"SGP4","MEAN_ANOMALY":"282.9098","DECAY_DATE":null,"TIME_SYSTEM":"UTC","TLE_LINE1":"1 45663U 20035G   22100.88005862  .00002118  00000-0  16096-3 0  9993","BSTAR":"0.00016096000000","REV_AT_EPOCH":"10337","RA_OF_ASC_NODE":"0.7881","SITE":"AFETR","COUNTRY_CODE":"US","SEMIMAJOR_AXIS":"6925.313","GP_ID":"200938588","APOAPSIS":"548.127","MEAN_MOTION":"15.06411641","CENTER_NAME":"EARTH","REF_FRAME":"TEME","RCS_SIZE":"LARGE","MEAN_MOTION_DOT":"0.00002118","NORAD_CAT_ID":"45663","PERIOD":"95.591","PERIAPSIS":"546.228","ELEMENT_SET_NO":"999"},{"NORAD_CAT_ID":"45665","RCS_SIZE":"LARGE","MEAN_MOTION_DOT":"0.00002697","ELEMENT_SET_NO":"999","PERIAPSIS":"546.054","PERIOD":"95.592","MEAN_MOTION":"15.06400836","APOAPSIS":"548.368","GP_ID":"200906967","REF_FRAME":"TEME","CENTER_NAME":"EARTH","BSTAR":"0.00019989000000","TLE_LINE1":"1 45665U 20035J   22100.44881627  .00002697  00000-0  19989-3 0  9994","RA_OF_ASC_NODE":"2.7178","REV_AT_EPOCH":"10330","TIME_SYSTEM":"UTC","DECAY_DATE":null,"COUNTRY_CODE":"US","SEMIMAJOR_AXIS":"6925.346","SITE":"AFETR","MEAN_MOTION_DDOT":"0.0000000000000","EPHEMERIS_TYPE":"0","CLASSIFICATION_TYPE":"U","OBJECT_ID":"2020-035J","FILE":"3396223","OBJECT_TYPE":"PAYLOAD","MEAN_ANOMALY":"291.9385","MEAN_ELEMENT_THEORY":"SGP4","INCLINATION":"53.0555","ECCENTRICITY":"0.00016700","LAUNCH_DATE":"2020-06-04","ARG_OF_PERICENTER":"68.1781","EPOCH":"2022-04-10T10:46:17.725728","TLE_LINE2":"2 45665  53.0555   2.7178 0001670  68.1781 291.9385 15.06400836103308","OBJECT_NAME":"STARLINK-1448"},{"RA_OF_ASC_NODE":"2.7094","REV_AT_EPOCH":"10330","TLE_LINE1":"1 45666U 20035K   22100.45524445  .00003999  00000-0  28720-3 0  9997","BSTAR":"0.00028720000000","TIME_SYSTEM":"UTC","DECAY_DATE":null,"SEMIMAJOR_AXIS":"6925.343","COUNTRY_CODE":"US","SITE":"AFETR","EPHEMERIS_TYPE":"0","MEAN_MOTION_DDOT":"0.0000000000000","CLASSIFICATION_TYPE":"U","OBJECT_TYPE":"PAYLOAD","MEAN_ELEMENT_THEORY":"SGP4","INCLINATION":"53.0560","MEAN_ANOMALY":"298.6919","FILE":"3396223","OBJECT_ID":"2020-035K","ARG_OF_PERICENTER":"61.4229","OBJECT_NAME":"STARLINK-1449","TLE_LINE2":"2 45666  53.0560   2.7094 0001583  61.4229 298.6919 15.06401769103301","EPOCH":"2022-04-10T10:55:33.120480","ECCENTRICITY":"0.00015830","LAUNCH_DATE":"2020-06-04","NORAD_CAT_ID":"45666","MEAN_MOTION_DOT":"0.00003999","RCS_SIZE":"LARGE","ELEMENT_SET_NO":"999","PERIOD":"95.592","PERIAPSIS":"546.112","MEAN_MOTION":"15.06401769","APOAPSIS":"548.304","GP_ID":"200905216","REF_FRAME":"TEME","CENTER_NAME":"EARTH"},{"GP_ID":"200905466","APOAPSIS":"548.226","MEAN_MOTION":"15.06394929","CENTER_NAME":"EARTH","REF_FRAME":"TEME","MEAN_MOTION_DOT":"-0.00001115","RCS_SIZE":"LARGE","NORAD_CAT_ID":"45667","PERIOD":"95.592","PERIAPSIS":"546.233","ELEMENT_SET_NO":"999","CLASSIFICATION_TYPE":"U","MEAN_MOTION_DDOT":"0.0000000000000","EPHEMERIS_TYPE":"0","TLE_LINE2":"2 45667  53.0566   2.7056 0001439  76.9406 283.1744 15.06394929103308","EPOCH":"2022-04-10T10:51:36.875232","OBJECT_NAME":"STARLINK-1450","ARG_OF_PERICENTER":"76.9406","LAUNCH_DATE":"2020-06-04","ECCENTRICITY":"0.00014390","OBJECT_TYPE":"PAYLOAD","MEAN_ELEMENT_THEORY":"SGP4","MEAN_ANOMALY":"283.1744","INCLINATION":"53.0566","OBJECT_ID":"2020-035L","FILE":"3396223","DECAY_DATE":null,"TIME_SYSTEM":"UTC","REV_AT_EPOCH":"10330","RA_OF_ASC_NODE":"2.7056","TLE_LINE1":"1 45667U 20035L   22100.45251013 -.00001115  00000-0 -55994-4 0  9990","BSTAR":"-0.00005599400000","SITE":"AFETR","SEMIMAJOR_AXIS":"6925.364","COUNTRY_CODE":"US"},{"ELEMENT_SET_NO":"999","PERIOD":"95.592","PERIAPSIS":"546.139","RCS_SIZE":"LARGE","MEAN_MOTION_DOT":"0.00001857","NORAD_CAT_ID":"45668","CENTER_NAME":"EARTH","REF_FRAME":"TEME","GP_ID":"200939089","MEAN_MOTION":"15.06403178","APOAPSIS":"548.268","SITE":"AFETR","COUNTRY_CODE":"US","SEMIMAJOR_AXIS":"6925.339","TIME_SYSTEM":"UTC","DECAY_DATE":null,"TLE_LINE1":"1 45668U 20035M   22100.88649758  .00001857  00000-0  14355-3 0  9991","BSTAR":"0.00014355000000","REV_AT_EPOCH":"10338","RA_OF_ASC_NODE":"0.7610","ECCENTRICITY":"0.00015370","LAUNCH_DATE":"2020-06-04","ARG_OF_PERICENTER":"53.6782","TLE_LINE2":"2 45668  53.0594   0.7610 0001537  53.6782 306.4349 15.06403178103387","OBJECT_NAME":"STARLINK-1451","EPOCH":"2022-04-10T21:16:33.390912","OBJECT_ID":"2020-035M","FILE":"3396586","INCLINATION":"53.0594","OBJECT_TYPE":"PAYLOAD","MEAN_ANOMALY":"306.4349","MEAN_ELEMENT_THEORY":"SGP4","CLASSIFICATION_TYPE":"U","EPHEMERIS_TYPE":"0","MEAN_MOTION_DDOT":"0.0000000000000"},{"SITE":"AFETR","SEMIMAJOR_AXIS":"6925.315","COUNTRY_CODE":"US","DECAY_DATE":null,"TIME_SYSTEM":"UTC","RA_OF_ASC_NODE":"0.8406","REV_AT_EPOCH":"10337","TLE_LINE1":"1 45669U 20035N   22100.86899994  .00001050  00000-0  89327-4 0  9996","BSTAR":"0.00008932700000","TLE_LINE2":"2 45669  53.0565   0.8406 0001541  52.9990 307.1140 15.06410842103370","OBJECT_NAME":"STARLINK-1452","EPOCH":"2022-04-10T20:51:21.594816","ARG_OF_PERICENTER":"52.9990","LAUNCH_DATE":"2020-06-04","ECCENTRICITY":"0.00015410","OBJECT_TYPE":"PAYLOAD","MEAN_ANOMALY":"307.1140","INCLINATION":"53.0565","MEAN_ELEMENT_THEORY":"SGP4","OBJECT_ID":"2020-035N","FILE":"3396586","CLASSIFICATION_TYPE":"U","MEAN_MOTION_DDOT":"0.0000000000000","EPHEMERIS_TYPE":"0","PERIAPSIS":"546.113","PERIOD":"95.591","ELEMENT_SET_NO":"999","MEAN_MOTION_DOT":"0.00001050","RCS_SIZE":"LARGE","NORAD_CAT_ID":"45669","CENTER_NAME":"EARTH","REF_FRAME":"TEME","GP_ID":"200939340","APOAPSIS":"548.248","MEAN_MOTION":"15.06410842"},{"CLASSIFICATION_TYPE":"U","EPHEMERIS_TYPE":"0","MEAN_MOTION_DDOT":"0.0000000000000","ECCENTRICITY":"0.00016670","LAUNCH_DATE":"2020-06-04","ARG_OF_PERICENTER":"56.0738","TLE_LINE2":"2 45670  53.0563 330.8878 0001667  56.0738 304.0409 15.06398425103683","EPOCH":"2022-04-10T20:39:26.542368","OBJECT_NAME":"STARLINK-1453","OBJECT_ID":"2020-035P","FILE":"3396586","MEAN_ANOMALY":"304.0409","OBJECT_TYPE":"PAYLOAD","INCLINATION":"53.0563","MEAN_ELEMENT_THEORY":"SGP4","TIME_SYSTEM":"UTC","DECAY_DATE":null,"TLE_LINE1":"1 45670U 20035P   22100.86072387  .00010751  00000-0  73955-3 0  9994","BSTAR":"0.00073955000000","RA_OF_ASC_NODE":"330.8878","REV_AT_EPOCH":"10368","SITE":"AFETR","COUNTRY_CODE":"US","SEMIMAJOR_AXIS":"6925.353","GP_ID":"200939591","MEAN_MOTION":"15.06398425","APOAPSIS":"548.373","CENTER_NAME":"EARTH","REF_FRAME":"TEME","RCS_SIZE":"LARGE","MEAN_MOTION_DOT":"0.00010751","NORAD_CAT_ID":"45670","ELEMENT_SET_NO":"999","PERIOD":"95.592","PERIAPSIS":"546.064"}];
